Community_Area_Name,Community_Area_Number,Property_Description,Property_Name,Address,ZIP_Code,Phone_Number,Management_Company,Units,Latitude,Longitude
Portage Park,15,ARO,4812-15 W. Montrose Apts.,4812-15 W. Montrose Ave.,60641,630-694-6968,@properties,2,,
West Englewood,67,Multifamily,New West Englewood Homes,2109 W. 63rd St.,60636,773-434-4929,Interfaith Housing Corp.,12,,
Englewood,68,Multifamily,Antioch Homes II,301 W. Marquette Road,60621,773-994-4546,"Universal Management Service, Inc.",69,41.77256377,-87.63241932
Washington Park,40,Senior HUD 202,St. Edmund's Corners,5556 S. Michigan Ave.,60637,773-667-7583,St. Edmund's Redevelopment Corp.,53,41.79297452,-87.62256852
Humboldt Park,23,Multifamily,Nelson Mandela Apts.,526 N. Troy St.,60624,773-227-6332,Bickerdike Apts.,6,41.89117274,-87.70533834
Grand Boulevard,38,Senior,Evans Langley,727 E. 50th Pl,60615,312-368-8610,"Metroplex, Inc.",60,41.80303973,-87.60775489
Uptown,3,Multifamily,Magnolia Court Apts.,4878 N. Magnolia Ave.,60640,773-878-2186,"Park, Inc.",60,41.97121983,-87.66124806
South Shore,43,Multifamily,Jeffrey Towers Apts.,7020 S. Jeffrey Blvd.,60649,872-777-4924,Interfaith Housing Corp.,136,41.76735295,-87.57647796
North Center,5,ARO,The Henry,1819 W. Montrose Ave.,60613,855-443-5287,FLATS Leasing,4,,
Near West Side,28,Multifamily,Near West Side Apts.,216 S. Hoyne Ave.,60612,312-738-2280,Baker-Simmons Apartments,84,41.87812559,-87.67915413
Albany Park,14,Senior,Mayfair Commons,4444 W. Lawrence Ave.,60630,773-205-7862,"Metroplex, Inc.",97,41.96822423,-87.73974749
Grand Boulevard,38,Multifamily,Legends South - Savoy Square,4448 S. State St.,60609,773-855-2209,Interstate Realty Management Co.,220,41.81319493,-87.6263368
Uptown,3,ARO,The Synagogue,5029 N. Kenmore Ave.,60640,855-443-5287,FLATS Leasing,4,,
West Town,24,Multifamily,Tierra Linda Apts.,1421 N. Artesian Ave.,60622,773-276-5338,LUCHA,3,,
Logan Square,22,Multifamily,Zapata Apts.,1955 N. St. Louis Ave.,60647,773-227-6332,Bickerdike Apartments,3,41.91725524,-87.71338923
Humboldt Park,23,Multifamily,Madres Unidas (scattered sites),3541 W. North Ave.,60647,773-276-5338 ext. 225,LUCHA,80,41.90989234,-87.71605298
Near North Side,8,Supportive,Carling Hotel,1512 N. LaSalle St.,60610,312-421-1170,Interstate Realty Management Co.,80,41.90959014,-87.63324548
North Lawndale,29,Multifamily,Park Douglas,1256-60 S. Washtenaw Ave.,60608,773-893-4800,Interstate Realty Management Co.,1,41.86484279,-87.69350892
Pullman,50,Multifamily,Pullman Wheelworks,901 E. 104th St.,60628,773-785-1300,Mercy Housing,210,41.70556659,-87.60107403
Auburn Gresham,71,Senior HUD 202,St. Sabina Elder Village Apts.,1222 W. 79th St.,60620,773-994-7850,Catholic Charities Housing Devp.,80,41.75059341,-87.65472675
Humboldt Park,23,Multifamily,Rosa Parks Apts.,649 N. Sawyer Ave.,60624,773-227-6332,Bickerdike Apts.,6,41.89338882,-87.70756503
New City,61,Multifamily,Casa Hidalgo,4600 S. Wood St.,60609,312-248-8355,The Resurrection Project,10,41.81028546,-87.67002227
West Lawn,65,Seniors,Senior Suites of Midway Village,6800 S. Keating Ave.,60629,888-339-2315,Senior Lifestyle Corp.,89,41.76947523,-87.74048606
North Lawndale,29,Multifamily,Park Douglas,1303-15 S. Fairfield Ave.,60608,773-893-4800,Interstate Realty Management Co.,31,41.86448798,-87.69443508
Lower West Side,31,Multifamily,Casa Queretaro,2012 W. 17th St.,60608,312-666-1323,The Resurrection Project,45,41.8586567,-87.67659689
Austin,25,Multifamily,Pine Central,557 N. Pine Ave.,60644,773-568-1020,NHS Redevelopment Corp.,78,41.8905194,-87.76324864
West Ridge,2,Senior,Lincoln Village Senior Apts.,6057 N. Lincoln Ave.,60659,773-338-5900,Perlmark Realty Management,99,41.99186565,-87.70954508
West Ridge,2,Senior,West Ridge Senior Apts.,6142 N. California Ave.,60659,773-381-7400,West Ridge Senior Corp.,117,41.99344157,-87.69964542
East Garfield Park,27,Multifamily,Homan Square Apartments Phase IV,908 S. Central Park Ave.,60624,773-722-7320,Realty & Mortgage Co.,108,41.86966928,-87.71567245
Humboldt Park,23,Multifamily,Nelson Mandela Apts.,3145 W. Franklin Blvd.,60624,773-227-6332,Bickerdike Apts.,6,41.88996815,-87.7057294
Uptown,3,Multifamily,Sunnyside Kenmore Apts.,4130 N. Kenmore Ave.,60640,773-769-3116,"Metroplex, Inc.",13,41.95758244,-87.65636944
Kenwood,39,Multifamily,Drexel Preservation,837 E. 47th St.,60653,773-624-4901,MLG Management,39,41.80944088,-87.60503342
Logan Square,22,ARO,MiCA,2733 W. Belden Ave.,60647,312-702-2519,2293NMA LLC,22,41.92282434,-87.69674313
West Town,24,ARO,East Village Lofts,1100 N. Ashland Ave.,60622,773-278-8078,Wicker Park Apartments Inc.,1,41.901559,-87.66759184
Logan Square,22,Multifamily,Tierra Linda Apts.,3572 W. Palmer St.,60647,773-276-5338,LUCHA,3,,
Douglas,35,Multifamily,Park Boulevard IB,3506 S. State St.,60609,773-548-8792,"Urban Property Advisors, LLC",54,41.83078218,-87.62679018
Woodlawn,42,Multifamily,65th Street Apts.,6400 S. Maryland Ave.,60637,773-684-2056,"Urban Property Advisors, LLC",15,41.77861094,-87.60479472
Belmont Cragin,19,ARO,2917-39 N. Central,2917-39 N. Central Ave.,60634,708-867-3799,Zitella Development,3,41.93364805,-87.7661803
Oakland,36,Multifamily,Oakwood Shores Senior Apts.,3750 S. Cottage Grove Ave.,60653,773-373-1300,The Community Builders,76,41.82637057,-87.60828676
Oakland,36,Multifamily,Lakefront Phase II,1125 E. Bowen Ave.,60653,773-548-8795,"Urban Property Advisors, LLC",3,41.81871188,-87.59894571
Roseland,49,Inter-generational,Roseland Village Grand-Family Apts.,63 E. 104th St.,60628,773-468-1901,Mercy Housing,10,41.70526978,-87.62098184
Douglas,35,Multifamily,Park Boulevard IA,3845 S. State St.,60609,773-548-8792,"Urban Property Advisors, LLC",80,41.82420114,-87.62627123
Belmont Cragin,19,Senior,Senior Suites of Belmont-Cragin,6045 W. Grand Ave.,60639,773-237-1333,Senior Lifestyle Corp.,86,41.92079101,-87.77747755
North Lawndale,29,Multifamily,Lawndale Restoration II Apts. (scattered sites),10 N. Hamlin Ave.,60613,312-337-5339,Holsten Management Corp.,170,41.88109233,-87.72091009
West Town,24,Multifamily,Paseo Boricua Apts.,1154 N. Campbell St.,60622,312-602-6500,Hispanic Housing Dev. Corp.,61,41.90287808,-87.68963252
East Garfield Park,27,Multifamily,Ike Sims Village,3333 W. Maypole Ave.,60624,773-638-1818,Village Green Management Co.,200,41.88346519,-87.71003991
Austin,25,Multifamily,Rebecca Walker Complex,126 S. Central Ave.,60644,773-261-1550,Affordable Property Management Specialist,40,41.87849467,-87.76494803
Logan Square,22,Multifamily,Tierra Linda Apts.,1808-10 N. Kedzie Ave.,60647,773-276-5338,LUCHA,3,,
West Englewood,67,Multifamily,Clara Temple Hampton Residence,1656 W. 63rd St.,60636,773-778-2884,West Englewood Dev. Org.,71,41.77953039,-87.66652651
Humboldt Park,23,Supportive Housing,Sanctuary Place,642 N. Kedzie Ave.,60612,773-265-0983,Interfaith Housing Corp.,84,41.89317664,-87.70663122
Humboldt Park,23,Multifamily,Rosa Parks Apts.,541 N. Homan Ave.,60624,773-227-6332,Bickerdike Apts.,27,41.89148035,-87.71116895
Uptown,3,Multifamily,850 Eastwood,850 W. Eastwood Ave.,60640,773-275-6877,Mercy Housing,69,41.96652845,-87.65171856
Washington Park,40,People with Disabilities,Urbanite Apartments,5441 S. Michigan Ave.,60615,773-285-3341,Assoc. of Chicago Day School,85,41.7952753,-87.62233438
Lower West Side,31,Multifamily,Casa Tabasco,2014 S. Racine Ave.,60608,312-850-1935,The Resurrection Project,45,41.85469028,-87.65647821
Lakeview,6,ARO,Viridian on Sheridan,734 W. Sheridan Rd.,60613,847-250-4900,rmk Management,2,41.95286969,-87.64934018
Loop,32,Multifamily,Randolph Tower City Apts. (studios only),188 W. Randolph St.,60601,312-291-8679,Village Green Management Co.,16,41.88457966,-87.63375683
Austin,25,Supportive/Teenage Moms,Home for New Moms,5327 W. Chicago Ave.,60651,773-610-7696,"New Moms, Inc.",40,41.89479143,-87.75927048
Woodlawn,42,Senior,Butler Apts.,6146 S. Kenwood Ave.,60637,773-955-9290,Woodlawn Comm. Dev. Corp.,17,41.78280346,-87.59326131
Douglas,35,Multifamily,Park Boulevard IIB,3700 S. Dearborn St.,60609,773-548-8792,"Urban Property Advisors, LLC",72,41.82719422,-87.62784358
Grand Boulevard,38,Artist Live/Work Space,Bronzeville Artists Lofts,436 E. 47th St.,60653,773-324-1745,Revere Properties,16,41.80952057,-87.61482402
North Park,13,Senior,North Park Village Apts.,5801 N. Pulaski Road,60646,773-478-6890,Elderly Housing Devp. & Operations Corp.,137,41.98593151,-87.72836921
Woodlawn,42,Multifamily,65th Street Apts.,6522 S. Ingleside Ave.,60637,773-684-2056,"Urban Property Advisors, LLC",18,41.77610371,-87.60232857
South Deering,51,Senior,Porta Coeli Residence,2260 E. 99th St.,60617,773-374-2470,Catholic Charities,86,41.71539824,-87.56871495
Kenwood,39,Multifamily,Jazz on the Boulevard (scattered sites),4657 S. Drexel Blvd,60653,312-660-1300,Heartland Housing,81,41.80971394,-87.60375337
Near West Side,28,Multifamily,Westhaven Park Phase IIB,110 N. Wood St.,60612,312-491-1114,Interstate Realty Management Co.,176,41.88355426,-87.67195337
Oakland,36,Multifamily,Lake Park Crescent,1061 E. 41st Place,60653,773-268-0200,"Draper and Kramer, Inc.",32,41.81978129,-87.59992527
East Garfield Park,27,Multifamily,Homan Square Apartments Phase V,3607 W. Polk St.,60624,773-722-7320,Realty & Mortgage Co.,42,41.87072555,-87.71590797
Roseland,49,Multifamily,Roseland Ridge Apts.,10513 S. Michigan Ave.,60628,773-341-3158,NHS Redevelopment Corp.,51,41.70307738,-87.62054468
Garfield Ridge,56,Senior,Senior Suites of Garfield Ridge,5839 S. Harlem Ave.,60638,773-229-1533,Senior Lifestyle Corp.,87,41.78535412,-87.801098
North Lawndale,29,Multifamily,Dicksons Estates Apts.,1129 S. Sacramento Ave.,60612,773-638-0386,Dickson Estates Apartments,42,41.86736961,-87.70066623
Bridgeport,60,Senior,Senior Suites of Bridgeport,2825 S. Halsted St.,60608,312-326-0333,Senior Lifestyle Corp.,85,41.84272915,-87.64624727
Near North Side,8,Multifamily,Clybourn 1200,1200 N. Clybourn Ave.,60622,312-477-7442,Interstate Realty Management Co.,52,41.90378958,-87.63982077
Lincoln Square,4,ARO,The Westner,4618 N. Western Ave.,60625,773-975-7234,Kass Management,2,41.96549759,-87.68895433
Logan Square,22,Multifamily,Tierra Linda Apts.,1812 N. Drake Ave.,60647,773-276-5338,LUCHA,3,,
South Chicago,46,Senior,Victory Center of South Chicago,3251 E. 92nd St.,60617,773-449-2600,Pathway Senior Living,60,41.72821355,-87.54469279
West Garfield Park,26,Supportive Housing,The Rebecca Johnson Apts.,2822 W. Jackson Blvd.,60612,773-638-6393,Deborah's Place Ltd.,52,41.87753589,-87.69706305
Near North Side,8,Multifamily,North Town Village II,1311 N. Halsted St.,60642,312-944-9488,Holsten Real Estate Dev. Corp.,112,41.90543825,-87.64798274
North Lawndale,29,Multifamily,Lazarus Apartments,1859 S. Pulaski Ave.,60623,773-762-3389,Lawndale Christian Residential Svcs.,26,41.85533972,-87.72471008
Grand Boulevard,38,Multifamily,Rosenwald Courts Apts.,4642 S. Michigan Ave.,60653,773-819-2267,Mercy Housing,239,41.80982565,-87.62299938
Near West Side,28,Supportive,Lake Street Studios,727 W. Lake St.,60661,312-274-8200,Interfaith Housing Corp.,61,41.8855647,-87.64685508
Humboldt Park,23,Multifamily,Rosa Parks Apts.,601 N. Drake Ave,60624,773-227-6332,Bickerdike Apts.,6,41.89190162,-87.71483993
Uptown,3,ARO,4801 N. Ravenswood Ave.,4801 N. Ravenswood Ave.,60640,773-929-7050,Hayes Properties Inc.,4,41.9689735,-87.67403032
Grand Boulevard,38,Multifamily,Paul G. Stewart Phase V,400 E. 41st St.,60653,773-924-2100,Paul G. Stewart Assoc.,20,41.8203495,-87.61651411
Uptown,3,ARO,Upshore Chapter,4555 N. Sheridan Road,60640,312.229.6446,33 Realty,7,,
Hyde Park,41,ARO,5432-44 S. Woodlawn,5432 S. Woodlawn Ave.,60615,312-480-0933,Chicago Apartment Finders,10,41.79696316,-87.59673531
West Town,24,ARO,1611 West Division,1611 W. Division St.,60622,773-661-5500,M. Fishman & Co.,10,41.9032305,-87.66797825
North Lawndale,29,Multifamily,Park Douglas,2652 W. 12th Pl,60608,773-893-4800,Interstate Realty Management Co.,4,41.8657664,-87.69316184
East Garfield Park,27,Multifamily,Liberty Square Apts.,705-23 S. Independence Ave.,60624,773-538-3800,Bonheur Realty Services Corp.,66,41.87244138,-87.71958599
Near South Side,33,Supportive Housing,The Studios,1801 S. Wabash St.,60616,312-326-5200,East Lake Management Co.,96,41.85779292,-87.62546237
Oakland,36,Multifamily,Lakefront Phase II,1106 E. 42nd Pl,60653,773-548-8795,"Urban Property Advisors, LLC",3,41.81813912,-87.59936268
Humboldt Park,23,Multifamily,Nelson Mandela Apts.,3500 W. Ohio St.,60624,773-227-6332,Bickerdike Apts.,6,41.89192949,-87.71382831
West Town,24,Multifamily,Borinquen Bella Apts.,"1318,1456 N. Rockwell Ave.",60622,773-276-5338,LUCHA,24,41.905458,-87.69216188
Grand Boulevard,38,Multifamily,Legends South - Mahalia Place,116 E. 43rd St.,60653,773-285-9500,Interstate Realty Management Co.,110,41.81666257,-87.62226472
Humboldt Park,23,Multifamily,Nelson Mandela Apts.,614 N. Spaulding Ave.,60624,773-227-6332,Bickerdike Apts.,6,41.89237005,-87.70904868
Woodlawn,42,Multifamily,Woodlawn-Michigan Development,6446 S. Kenwood Ave.,60637,312-226-2200,Wolcott Real Property LLC,33,41.77748903,-87.59314971
Humboldt Park,23,Senior,LUCHA Affordable Units,3541 W. North Ave.,60647,312-276-5338,LUCHA,69,41.90989234,-87.71605298
Near West Side,28,ARO,Milieu Apts.,205 S. Peoria St.,60607,312-983-7152,White Oak Realty Partners,7,,
Albany Park,14,Senior,Senior Suites of Ravenswood Manor,2800 W. Montrose Ave.,60618,773-509-9333,Senior Lifestyle Corp.,80,41.96135865,-87.69854417
North Lawndale,29,65+/Supportive,Montclare Sr. Residences SLF of Lawndale,4339-47 W. 18th Pl,60623,773-277-0288,Montclare Supportive Living,120,41.85577153,-87.7338879
Rogers Park,1,Senior,Morse Senior Apts.,6928 N. Wayne Ave.,60626,312-602-6207,Morse Urban Dev.,44,42.00757377,-87.66517114
Englewood,68,Supportive/Veterans,Hope Manor II Apts.,6002 S. Halsted St.,60621,773-874-3610,Voluinteers of America Illinois,73,41.78499449,-87.64506314
Montclare,18,ARO,2931-57 N. Harlem LLC,2931-57 N. Harlem Ave.,60707,708-867-3799,Zitella Development,5,41.93350027,-87.80644193
Oakland,36,Multifamily,Lakefront Phase II,1140 E. 42nd Pl,60653,773-548-8795,"Urban Property Advisors, LLC",6,41.81813504,-87.59809656
Near West Side,28,Multifamily,Newberry Park Apts.,1355 S. Blue Island Ave.,60608,312-563-0099,AIMCO,124,41.8639941,-87.65575239
Auburn Gresham,71,Senior,Senior Suites of Auburn-Gresham,1050 W. 79th St.,60620,773-723-0333,Senior Lifestyle Corp.,85,41.75064862,-87.65092232
North Center,5,Senior,North Center Senior Apts.,2324 W. Irving Park Road,60618,773-478-8900,"Metroplex, Inc.",60,41.95414467,-87.68697505
East Garfield Park,27,Supportive Housing,East Park Apts.,3300 W. Maypole Ave.,60624,773-826-3300,The Habitat Co.,152,41.88369802,-87.7089025
West Pullman,53,Supportive Housing,Hancock House,12045 S. Emerald Ave.,60628,773-568-3000,Source Works Development,90,41.67469008,-87.64051484
Humboldt Park,23,Multifamily,La Estancia,3220 W. Division St.,60651,773-227-6332,Bickerdike Apts.,18,41.90293349,-87.70762292
North Lawndale,29,Multifamily,Park Douglas,1313-15 S. Fairfiled Ave.,60608,773-893-4800,Interstate Realty Management Co.,4,41.86422845,-87.69442766
Grand Boulevard,38,Supportive Housing,Washington Park SRO,5000 S. Indiana Ave.,60615,773-924-1107,"East Lake Management Group, Inc.",96,41.80375452,-87.62121706
Lower West Side,31,Multifamily,Resurrection Homes,2124 W. 19th St.,60608,312-666-1323,The Resurrection Project,5,41.85590751,-87.67943292
West Pullman,53,Senior,All Saints Senior Residence,11701 S. State St.,60628,312-655-7440,Catholic Charities Housing Devp.,42,41.6815901,-87.62262763
Near South Side,33,Senior,Senior Suites of Central Station,1400 S. Indiana Ave.,60605,312-913-9333,Senior Lifestyle Corp.,276,41.86402666,-87.62262043
Washington Park,40,Senior,St. Edmund's Tower Annex,6151 S. Michigan Ave.,60637,773-493-2411,St. Edmund's Redevelopment Corp.,34,41.782332,-87.62198764
Grand Boulevard,38,Multifamily,Indiana Manor Town Homes,4427-33 S. Indiana Ave.,60653,773-268-5326,Indiana Manor Townhomes,87,41.813971,-87.62119166
Uptown,3,Supportive Housing,Major Jenkins Apts.,5012 N. Winthrop Ave.,60640,773-506-3486,Mercy Housing,96,41.97370056,-87.65789194
Oakland,36,Multifamily,Lakefront Phase II,1128 E. Bowen Ave.,60653,773-548-8795,"Urban Property Advisors, LLC",3,41.81894603,-87.59897812
North Lawndale,29,Supportive/Youth/Kinship Families,Sankofa House,4041 W. Roosevelt Road,60624,773-257-8800,Interfaith Housing Corp.,32,41.86604003,-87.72672414
Uptown,3,ARO,Saxony Wilson,1630 W. Wilson Ave.,60640,312-243-5353,Malet Realty,2,,
Belmont Cragin,19,Senior,Cicero & George Elderly Apts.,4800 W. George St.,60641,312-291-5420,Hispanic Housing Dev. Corp.,70,41.93346293,-87.74679225
Douglas,35,Multifamily,Park Boulevard IIA,17 W. 36th St.,60609,773-548-8792,"Urban Property Advisors, LLC",36,41.82906211,-87.62716568
Lakeview,6,ARO,The Bel,941 W. Belmont Ave.,60657,773-327-6146,33 Realty,4,,
West Town,24,Senior,North & Talman Elderly Apts.,1600 N. Talman Ave.,60647,773-486-7410,Hispanic Housing Dev. Corp.,24,41.91034383,-87.69347132
Oakland,36,Multifamily,Lakefront Phase II,4143 S. Lake Park Ave.,60653,773-548-8795,"Urban Property Advisors, LLC",3,41.81881289,-87.59996595
Englewood,68,People with Disabilities,Victoria Jennings Residences,624 W. 61st St.,60621,773-994-3690,"HSR Property Services, LLC",57,41.78355891,-87.6410929
Woodlawn,42,Multifamily,Strand Hotel,6321 S. Cottage Grove Ave.,60637,312-274-9169,Holsten Real Estate Dev. Corp.,63,41.7797573,-87.60576963
Lower West Side,31,Multifamily,Casa Oaxaca,1714 W. 19th St.,60608,312-666-1323,The Resurrection Project,25,41.85603287,-87.66936057
West Town,24,ARO,Wicker Park Connection,1640 W. Division St.,60647,312-330-3210,rmk Management,20,,
North Lawndale,29,Multifamily,Park Douglas,1262-1300 S. Washtenaw Ave.,60608,773-893-4800,Interstate Realty Management Co.,7,41.86468333,-87.69350477
Avalon Park,45,Senior,Montclare Senior Residences of Avalon Park,1200 E. 78th St.,60619,773-933-9000,Montclare Senior Residences,102,41.75332086,-87.5954564
Humboldt Park,23,Multifamily,Nelson Mandela Apts.,528 N. Troy St.,60624,773-227-6332,Bickerdike Apts.,3,41.89123228,-87.70534012
Lincoln Square,4,ARO,2247 W. Lawrence Ave.,2247 W. Lawrence Ave.,60625,312-266-1515,CA Urban Living,2,,
Chicago Lawn,66,Senior,Lawn Terrace Apts.,3214 W. 63rd Pl,60629,773-925-2815,Greater Southwest Dev. Corp.,102,41.77814486,-87.70387541
Grand Boulevard,38,Senior,Bronzeville Senior Apts.,460 E. 41st St.,60653,773-924-2100,Peoples Co-Op Management Service,97,41.82038154,-87.61438244
Near West Side,28,Multifamily,Westhaven Park Phase IIC,1939 W. Lake St.,60612,312-455-0009,Interstate Realty Management Co.,42,41.8849038,-87.67585077
North Lawndale,29,Senior,Tabernacle Apts.,3836 W. Cermak Road,60623,773-762-3389,Lawndale Christian Residential Svcs.,126,41.85170274,-87.72132688
Lower West Side,31,Multifamily,Casa Monterrey,967 W. 19th St.,60608,312-666-1323,The Resurrection Project,4,41.85656724,-87.65074652
Washington Park,40,Multifamily,Michigan Plaza (St. Edmund's Plaza),5701 S. Michigan Ave.,60653,773-548-8924,Michigan Plaza LP,230,41.79098039,-87.62222411
Edgewater,77,Senior,Pomeroy Apts.,5650 N. Kenmore Ave.,60660,773-275-7820,Habitat Company,198,41.98518678,-87.65680868
Grand Boulevard,38,Multigfamily,Cornerstone Apts.,731 E. 50th Pl,60615,312-577-5555,The Community Builders Inc.,24,41.80304222,-87.60758851
South Shore,43,Multifamily,Highlands Tudor Manor,7018 S. Cregier Ave.,60649,773-667-1940,Related Management Co. LP,18,41.76738208,-87.58140538
South Chicago,46,Multifamily,Casa Kirk,3200 E. 92nd St.,60617,773-734-2884,Interfaith Housing Corp.,112,41.72840878,-87.54682246
North Park,13,Senior,Edward M. Marx Apts.,5801 N. Pulaski Road,60646,773-583-4182,Elderly Housing Devp. & Operations Corp.,180,41.98593151,-87.72836921
Near South Side,33,Multifamily,Hilliard Homes Phase II,2031 S. Clark St.,60616,312-326-1455,Holsten Management Corp.,176,41.8544114,-87.62999188
Roseland,49,Supportive Housing,Holland Apartments,240 W. 107th Place,60628,773-568-3031,Mercy Housing,40,41.69899564,-87.62954345
Lakeview,6,Senior LGBTQ,Town Hall Apts.,3600 N. Halsted St.,60613,773-472-6463,Heartland Houing Inc.,79,41.94740174,-87.64963658
West Town,24,ARO,Seven 10 West,710 W. Grand Ave.,60654,414-369-3511,Outlook Management,1,41.89131063,-87.64632446
Auburn Gresham,71,Supportive/Veterans,Veteran's New Beginnings,8132-44 S. Racine Ave.,60620,773-488-2317,"HSR Property Services, LLC",54,41.74586011,-87.65376017
Logan Square,22,ARO,2556 Armtiage LLC,2556 W. Armitage Ave,60647,773-252-0600,North Clybourn Group,1,,
West Town,24,Supportive Housing,Wicker Park Renaissance,1527-31 N. Wicker Park Ave.,60622,773-278-8602,"RRG Development, Inc.",102,41.90876874,-87.67689152
East Garfield Park,27,Multifamily/Artists,Switching Station Lofts,15 S. Homan Ave.,60624,312-859-0577,Holsten Management Corp.,24,41.88041381,-87.71084273
Washington Heights,73,Supportive Housing,Brainerd Park Apts.,8920 S. Loomis St.,60620,312-535-3157,Full Circle Management,4,,
Logan Square,22,Multifamily,Zapata Apts.,3503 W. Armitage Ave,60647,773-227-6332,Bickerdike Apartments,12,41.91720928,-87.71368201
Humboldt Park,23,Multifamily,Nelson Mandela Apts.,3118 W. Franklin Blvd.,60624,773-227-6332,Bickerdike Apts.,6,41.89019948,-87.70473978
Woodlawn,42,Multifamily,Dorchester Apts.,1410 E. 62nd St.,60637,773-572-5500,The Thresholds,67,41.78250522,-87.59096164
Hegewisch,55,Senior,Senior Suites of Hegewisch,13550 S. Avenue O,60633,773-646-1333,Senior Lifestyle Corp.,116,41.64845741,-87.54012317
South Lawndale,30,Multifamily,Casa Tabasco,3515-17 W. 23rd St.,60623,312-248-8355,The Resurrection Project,8,41.84975688,-87.71320473
North Lawndale,29,Multifamily,Fountain View Apts.,1331 S. Independence Blvd.,60623,773-762-3389,Lawndale Christian Residential Svcs.,32,41.86341092,-87.71929168
Humboldt Park,23,Multifamily,Rosa Parks Apts.,532 N. Trumbull Ave.,60624,773-227-6332,Bickerdike Apts.,15,41.89123533,-87.71267502
Near South Side,33,Senior,Hilliard Homes Phase II,30 W. Cermak Road,60616,312-326-1466,Holsten Management Corp.,151,41.85301339,-87.62823221
Uptown,3,Multifamily,Sunnyside Kenmore Apts.,847-49 W. Sunnyside Ave.,60640,773-769-3116,"Metroplex, Inc.",83,41.9635354,-87.65179619
Gage Park,63,Senior,Senior Suites of Gage Park,3244 W. 59th St.,60629,773-434-4333,Senior Lifestyle Corp.,59,41.78632805,-87.70513618
Lower West Side,31,Senior,Casa Maravilla,2021 S. Morgan St.,60608,312-666-1323,The Resurrection Project,5,41.85461476,-87.65132209
Near North Side,8,Supportive Housing,The Midwest/Carroll Park Apts.,1333 N. Kingsbury St.,60622,312-337-5339,Holsten Real Estate Dev. Corp.,40,41.905731,-87.64964597
Grand Boulevard,38,Multifamily,Cornerstone Apts.,4950 S. Langley Ave.,60615,312-577-5555,The Community Builders Inc.,21,41.80435535,-87.60902296
West Town,24,Multifamily,Boulevard Court Family Housing,1723-33 N. Humboldt Blvd.,60647,773-486-7410,Hispanic Housing Dev. Corp.,52,41.91280865,-87.70180006
Logan Square,22,ARO,2501 Armitage,2501 W. Armitage Ave.,60647,312-255-1153,Tandem Property Management,8,41.91744385,-87.68988362
Austin,25,Supportive Housing,Menard Apartments,334 N. Menard Ave.,60644,773-572-5272,The Thresholds,57,41.88672742,-87.77013329
Humboldt Park,23,Disabled/Homeless,West Humboldt Place,3543 W. Chicago Ave.,60651,773-826-1230,Childrens Place Association,13,41.89535898,-87.71557516
Douglas,35,Multifamily,Park Boulevard IIA,3640 S. State St.,60609,773-548-8792,"Urban Property Advisors, LLC",80,41.82792531,-87.62663572
Washington Park,40,Senior,TRC Senior Village I,346 E. 53rd St.,60615,773-924-9270,The Renaissance Collaborative,35,41.79854996,-87.61745669
Humboldt Park,23,Multifamily,Nelson Mandela Apts.,3224 W. Ohio St.,60624,773-227-6332,Bickerdike Apts.,6,41.89199316,-87.70760707
Englewood,68,Supportive Housing,Branch of Hope Apts.,5628-30 S. Halsted St.,60621,773-488-7205,Evergreen Real Estate LLC,99,41.79162782,-87.64523321
Humboldt Park,23,Senior,North & Pulaski Senior Housing,3939-59 W. North Ave.,60647,773-687-0234,Hispanic Housing Dev. Corp.,72,41.90978701,-87.72558192
Uptown,3,Supportive Housing,Harold Washington Apts.,4946 N. Sheridan Road,60640,312-447-4621,Mercy Housing,100,41.97294612,-87.65506712
Near West Side,28,Supportive,Harvest Commons,1519 W. Warren Blvd.,60607,312-660-1354,Heartland Houisng Inc.,89,41.88227183,-87.66598098
Grand Boulevard,38,Multifamily,Hearts United III-The Leontyne (scattered sites),4340-2 S. Champlain St.,60653,773-924-2100,Bonheur Realty Services Corp.,53,41.81660195,-87.61055648
New City,61,Multifamily,Senior Suites of New City,4845 S. Western Blvd.,60609,773-523-9333,Senior Lifestyle Corp.,115,41.80531018,-87.68362994
Albany Park,14,Senior,Darul Amaan Senior Living,4814-58 N. Kedzie Ave.,60625,773-463-3004,East Lake Management & Development Corp.,56,41.96893506,-87.70863783
North Lawndale,29,Multifamily,Park Douglas,1254-56 S. Fairfiled Ave.,60608,773-893-4800,Interstate Realty Management Co.,7,41.86488549,-87.69474071
Washington Park,40,Multifamily,St. Edmund's Village,6253 S. Michigan Ave.,60653,773-493-2411,St. Edmund's Village LP,31,41.78040369,-87.62183749
Montclare,18,ARO,"6602, 6614 W. Diversey","6602,6614 W. Diversey Ave.",60707,708-867-3799,Zitella Development,3,41.93104976,-87.79077219
Rogers Park,1,Supportive Housing,Wayne Street Apts.,6808 N. Wayne Ave.,60626,773-572-5272,The Thresholds,297,42.00577097,-87.66511109
West Town,24,Supportive/Veterans,65th Infantry Boringueneers Apts.,1045 N. Sacramento Blvd.,60622,773-772-4801,Hispanic Housing Dev. Corp.,48,41.90048723,-87.70160663
Oakland,36,Multifamily,Lakefront Phase II,1110 E. Bowen Ave.,60653,773-548-8795,"Urban Property Advisors, LLC",3,41.81874892,-87.59960335
Woodlawn,42,Multifamily,Eddie Mae & Alex Johnson Apts.,6230 S. Dorchester Ave.,60637,773-288-4202,Woodlawn East Community,84,41.78143113,-87.59152085
Woodlawn,42,Senior,The Burnham at Woodlawn Park,6134 S. Cottage Grove Ave.,60637,773-955-8668,Preservation Housing Management LLC,65,41.78300119,-87.60613195
Logan Square,22,Multifamily,Rev. Daniel Alvarez Apts.,2451-57 N. Sacramento Ave.,60612,773-772-4063,Hispanic Housing Dev. Corp.,96,41.92627863,-87.70220924
Chatham,44,Senior,Senior Suites of Chatham,8300 S. Cottage Grove Ave.,60619,773-488-1333,Senior Lifestyle Corp.,90,41.74387382,-87.60517616
Chicago Lawn,66,Senior,Senior Suites of Marquette Village,7430 S. Rockwell St.,60629,773-432-8420,Senior Lifestyle Corp.,93,41.75815411,-87.68810611
Hyde Park,41,ARO,Vue53,1330 E. 53rd St.,60615,773-355-4972,Peak Campus,27,41.79959787,-87.59376104
North Lawndale,29,Multifamily,Resurrection Homes,1910 S. Albany Ave.,60623,312-248-8355,The Resurrection Project,2,41.8551334,-87.7030674
Douglas,35,Mutifamily,Park Boulevard IIB,15 W. 37th St.,60609,773-548-8792,"Urban Property Advisors, LLC",12,41.82720892,-87.62722672
Lakeview,6,ARO,3462 Lincoln,3462 N. Lincoln Ave.,60657,773-525-6570,Spaces Real Estate,2,,
North Lawndale,29,Multifamily,Park Douglas,1218-20 S. Washtenaw Ave.,60608,773-893-4800,Interstate Realty Management Co.,29,41.8658847,-87.69353817
Edgewater,77,Senior,Hollywood House Apts.,5700 N. Sheridan Road,60660,773-728-2600,Heartland Housing,93,41.9856411,-87.65538854
Logan Square,22,Multifamily,Tierra Linda Apts.,1802 N. Sawyer Ave.,60647,773-276-5338,LUCHA,3,,
Oakland,36,Multifamily,Lakefront Phase II,4131 S. Lake Park Ave.,60653,773-548-8795,"Urban Property Advisors, LLC",6,41.81914922,-87.60016504
Austin,25,Multifamily,Congress Commons LLC,504 S. Laramie Ave.,60644,773-287-1592,Congress Commons LLC,161,41.87376512,-87.7549712
Hyde Park,41,ARO,City Hyde Park,5105 S. Harper Ave.,60615,773-548-5077,Mac Properties,36,41.80226057,-87.58900435
West Elsdon,62,Multifamily,Park Place Family Apts.,3630 W. 51st St.,60632,773-767-7260,"Leasing and Management Co., Inc.",78,41.80078286,-87.71473662
Logan Square,22,ARO,1955 Richmond Place,1955 N. Richmond St.,60647,847-542-0442,@properties,3,41.91725621,-87.70031066
Woodlawn,42,Multifamily,The Grant at Woodlawn Pk Phase II,6129 S. Cottage Grove Ave.,60637,312-283-0030,Preservation Housing Management LLC,33,41.78317579,-87.60584352
Lower West Side,31,Multifamily,Casa Guerrero,963 W Cullerton St.,60608,312-666-1323,The Resurrection Project,52,41.8551748,-87.65062753
West Town,24,ARO,1038 N. Ashland,1038-40 N. Ashland Ave.,60622,312-600-4501,Honore Properties,2,41.90089079,-87.66757227
Avondale,21,Supportive Housing,Milwaukee Ave. Apts.,3060 N. Milwaukee Ave.,60618,312-967-7300,Full Circle Management,32,41.93666739,-87.72009772
Douglas,35,Multifamily,Park Boulevard IIB,10 W. 37th St.,60609,773-548-8792,"Urban Property Advisors, LLC",12,41.82744587,-87.62694964
North Park,13,Senior,J. Michael Fitzgerald Apts.,5801 N. Pulaski Road,60646,773-588-1725,Elderly Housing Devp. & Operations Corp.,63,41.98593151,-87.72836921
Oakland,36,Multifamily,Lakefront Phase II,1060 E. 41st St.,60653,773-548-8795,"Urban Property Advisors, LLC",81,41.82035789,-87.60043601
East Garfield Park,27,Supportive Housing,Deborah's Place III,2822 W. Jackson Blvd.,60612,773-638-6490,Deborah's Place,90,41.87753589,-87.69706305
Humboldt Park,23,Multifamily,La Estancia,3248 W. Division St.,60651,773-227-6332,Bickerdike Apts.,9,41.90292371,-87.7086161
North Lawndale,29,Multifamily,Park Douglas,2642-44 W. 12 th Pl,60608,773-893-4800,Interstate Realty Management Co.,17,41.86577114,-87.69274143
Montclare,18,Senior,The Montclare Senior Residences,6650 W. Belden Ave.,60707,773-237-3831,Pacific Management Inc.,7,41.92130822,-87.79209096
North Lawndale,29,Supportive/HIV/AIDS,Hope House,1251 S. Sawyer Ave.,60623,773-935-4663,"AIDSCare, Inc.",80,41.86482901,-87.70669366
Belmont Cragin,19,Senior,Crystal Courts/Anixter Center,5038 W. Armitage Ave.,60639,773-385-9080,Lester and Rosalie Anixter Center,17,41.91696054,-87.75247249
Woodlawn,42,Multifamily,Renaissance Apts.,6200 S. University Ave.,60637,773-752-9400,AIMCO,64,41.782231,-87.59801573
Englewood,68,Supportive Housing,Rowan Trees Apts.,500 W. Englewood Ave.,60621,773-572-5272,The Thresholds,167,41.78090936,-87.63761782
West Town,24,Multifamily,North and Talman Family Apts.,2654 W. North Ave.,60647,773-486-7410,Hispanic Housing Dev. Corp.,30,41.91035449,-87.69432564
Austin,22,Multifamily,Madison Renaissance Apts.,1816 N. St. Louis Ave.,60647,773-227-1366,Related Management Co. LP,30,41.91421838,-87.71358429
West Pullman,53,Senior,Kennedy Jordan Manor,825 W. 118th St.,60643,773-568-2929,Source Works Management,70,41.67950676,-87.6430113
East Garfield Park,27,Senior,Heritage Woods of Chicago,2800 W. Fulton St.,60612,773-722-2900,BMA Management Ltd.,113,41.88664623,-87.69655814
Rogers Park,1,Senior,James Sneider Apts.,7450 N. Rogers Ave.,60626,773-743-3699,Hispanic Housing Dev. Corp.,57,42.01714971,-87.67317857
Humboldt Park,23,Multifamily,Tierra Linda Apts.,1749-51 N. Drake Ave.,60647,773-276-5338,LUCHA,6,,
Douglas,35,Senior,Pioneer Village Apts.,340 E. 38th St.,60653,773-536-0463,Pioneer Affordable Housing Preservation,152,41.82575322,-87.61751743
Uptown,3,Multifamily,Uptown Preservation Apts.,900 W. Windsor Ave.,60640,773-286-5400,Leasing & Management Co. Inc.,160,41.9645923,-87.65250544
Near West Side,28,Multifamily,Jackson Square West End,2425 W. Adams St.,60612,312-492-6645,East Lake Management Co.,115,41.8784239,-87.68736835
Logan Square,22,Multifamily,Tierra Linda Apts.,1822 N. Sawyer Ave.,60647,773-276-5338,LUCHA,3,,
Uptown,3,ARO,811 Uptown,811 W. Agatite Ave.,60640,312-402-7784,RL Accelerated,22,41.96263002,-87.65043043
Grand Boulevard,38,Senior HUD 202,Margaret Ford Manor Independent Living,4500 S. Wabash Ave.,60653,773-924-9171,"HSR Property Services, LLC",63,41.81297966,-87.62470713
Lakeview,6,ARO,927 W. Irving,927 W. Irving Park Rd.,60613,773-665-0103,DLG Management,1,41.95439818,-87.65321906
Logan Square,22,ARO,The Western,1920 N. Milwaukee Ave.,60647,312-883-7331,Golub Realty Services,1,,
West Town,24,ARO,Homer Townhomes,1623 N. Talman Ave.,60647,773-975-7234,Kass Management,5,41.91097205,-87.69319452
Logan Square,22,ARO,2211 N. Milwaukee Ave.,2201-31 N. Milwaukee Ave.,60647,773-327-4975,33 Management LLC,12,41.92090376,-87.6938545
Humboldt Park,23,Multifamily,Spaulding Apartments,1750 N. Spaulding Ave.,60647,773-381-7400,G&A Management,111,41.91332565,-87.71031714
Near North Side,8,ARO,847 N. Larabee,847 N. Larabee St.,60610,773-698-6648,Fulton Grace Realty,1,,
North Lawndale,29,Multifamily,Park Douglas,1302-06 S. Washtenaw Ave.,60608,773-893-4800,Interstate Realty Management Co.,5,41.86452207,-87.69350059
Woodlawn,42,Multifamily,65th Street Apts.,817 E. 64th St.,60637,773-684-2056,"Urban Property Advisors, LLC",6,41.77849343,-87.60507242
Grand Boulevard,38,Senior,Park Boulevard Tower/Grand Renaissance Apts.,4257 S. King Dr.,60653,773-268-4642,"East Lake Management Group, Inc.",24,41.81674964,-87.61664895
West Garfield Park,26,Senior,Fannie Emanuel Apts.,3916 W. Washington Blvd.,60624,312-913-5812,McCormack Baron Management Inc.,181,41.88196929,-87.72399261
Near West Side,28,Multifamily,Roosevelt Square Phase I /ABLA Rental,1222 W. Roosevelt Road,60607,312-948-0116,Related Management Co. LP,105,41.86709035,-87.65767338
Washington Park,40,Multifamily,Harriett Tubman Apts.,5751-59 S. Michigan Ave.,60637,773-752-9760,Brand New Beginnings Inc.,65,41.78956141,-87.62218963
Fuller Park,37,Senior,Fellowship Manor,5041 S. Princeton Ave.,60609,773-924-5980,"East Lake Management Group, Inc.",100,41.80241312,-87.63305258
Auburn Gresham,71,Senior HUD 202,Naomi & Sylvester Smith Senior Living Ctr.,8019-55 S. Halsted St.,60620,773-651-6400,"HSR Property Services, LLC",59,41.74822238,-87.6438257
New City,61,Senior,West Haven Homes,850 W. Garfield Blvd.,60609,773-536-3057,"Universal Management Service, Inc.",110,41.7943937,-87.64724467
Roseland,49,Senior,Victory Center of Roseland,10450 S. Michigan Ave.,60628,773-468-6400,Pathway Senior Living,81,41.70389075,-87.62077116
Douglas,35,Multifamily,Park Boulevard IIA,3604 S. State St.,60609,773-548-8792,"Urban Property Advisors, LLC",6,41.82901759,-87.62666295
Grand Boulevard,38,Multifamily,Cornerstone Apts.,611 E. 50th St.,60615,312-577-5555,The Community Builders Inc.,8,41.80389906,-87.6108319
Oakland,36,Multifamily,Lakefront Phase II,1137 E. Bowen Ave.,60653,773-548-8795,"Urban Property Advisors, LLC",3,41.81886863,-87.59851524
North Lawndale,29,Multifamily,Park Douglas,1317-19 S. Fairfield Ave.,60608,773-893-4800,Interstate Realty Management Co.,29,41.86412462,-87.69442467
Montclare,18,ARO,2815-19 N. Natoma,2815-19 N. Natoma Ave.,60634,708-867-3790,Zitella Development,2,,
West Ridge,2,ARO,Joy Plaza Residences,6411 N. Rockwell Ave.,60645,224-534-9361,Devon NJ LLC,3,41.99802217,-87.69463113
Uptown,3,Senior,Ruth Shriman House,4040 N. Sheridan Road,60613,773-665-2210,Interfaith Housing Corp.,231,41.95568502,-87.65472513
Washington Park,40,Multifamily,St. Edmund's Oasis,6100-24 S. Prairie Ave.,60637,773-493-2411,St. Edmund's Redevelopment Corp.,27,41.78373056,-87.61908972
Grand Boulevard,38,Multifamily,Hearts United I-The Langston (scattered sites),722-46 E. Bowen Ave.,60653,773-924-2100,Bonheur Realty Services Corp.,116,41.81957647,-87.60848349
South Chicago,46,Senior,Victory Center of South Chicago,9200 S. Burley Ave.,60617,773-449-2600,Pathway Senior Living,23,41.72821986,-87.54575578
Humboldt Park,23,Multifamily,Nelson Mandela Apts.,3114 W. Franklin Blvd.,60624,773-227-6332,Bickerdike Apts.,6,41.8902013,-87.70458681
Near North Side,8,ARO,Xavier Chicago,625 W. Division St.,60622,312-642-2279,Greystar Property Management,24,41.90358744,-87.64433208
Grand Boulevard,38,Multifamily,Legends South - Gwendolyn Place,4333 S. Michigan Ave.,60653,773-624-7676,Interstate Realty Management Co.,71,41.8155504,-87.62285652
Edgewater,77,Multifamily,Bell Shore Apts.,1062 W. Bryn Mawr Ave.,60660,773-334-5407,Holsten Management Corp.,105,41.9837729,-87.65770384
Near West Side,28,Senior,McCrory Senior Apts.,1637-59 W. Washington Blvd.,60612,312-243-3333,Leasing & Management Co. Inc.,62,,
North Lawndale,29,Senior,Roosevelt Towers,3440 W. Roosevelt Road,60624,773-265-6961,"East Lake Management Group, Inc.",104,41.86643977,-87.71218086
Lakeview,6,Supportive,Buffet Place,3208 N. Shefield Ave.,60657,312-572-5272,Thresholds,51,41.94022814,-87.65426349
Lower West Side,31,Multifamily,Casa San Luis,1646-50 S. Throop St.,60608,312-666-1323,The Resurrection Project,12,41.8583373,-87.65903377
Greater Grand Crossing,69,Artist Housing,Dorchester Art + Housing Collaborative,1450 E. 70th St.,60619,773-324-2270,Leasing & Management Co. Inc.,32,41.76795883,-87.58910953
South Shore,43,Senior,Senior Suites of Rainbow Beach,2804 E. 77th Place,60649,773-374-5333,Senior Lifestyle Corp.,87,41.7546866,-87.55496472
Humboldt Park,23,Multifamily,Nelson Mandela Apts.,3554 W. Ohio St.,60624,773-227-6332,Bickerdike Apts.,6,41.89190751,-87.71596466
West Town,24,ARO,Centrum Wicker Park,1664 W. Division St.,60622,312-368-3000,Centrum Partners,6,41.90341508,-87.66997144
North Lawndale,29,Multifamily,Park Douglas,1224 S. Washtenaw Ave.,60608,773-893-4800,Interstate Realty Management Co.,31,41.86568173,-87.69353304
Near South Side,33,Senior,Hilliard Homes Phase I,30 W. Cermak Road,60616,312-326-1455,Holsten Real Estate Dev. Corp.,151,41.85301339,-87.62823221
West Town,24,Multifamily,North & Talman Phase III,2656 W. North Ave.,60647,773-602-2888,Hispanic Housing Dev. Corp.,18,41.91035372,-87.69440401
Portage Park,15,ARO,4015 Narragansett LLC,4015-23 N. Narragansett Ave.,60634,708-867-3799,Zidan Management Group,2,41.95344562,-87.78643375
Humboldt Park,23,Multifamily,Nelson Mandela Apts.,607 N. Sawyer Ave.,60624,773-227-6332,Bickerdike Apts.,6,41.89215341,-87.70752657
Oakland,36,Multifamily,Lakefront Phase II,1113 E. Bowen Ave.,60653,773-548-8795,"Urban Property Advisors, LLC",6,41.81857981,-87.59938372
Near South Side,33,Senior,G&A Senior Residences at Eastgate Village,300 E. 26th Street,60616,773-381-7400,Eastgate Village Partners LP,127,41.8457959,-87.62040337
Ashburn,70,Senior,Wrightwood Senior Apts.,2815 W. 79th St.,60652,773-471-7777,Ludwig and Company,85,41.74972646,-87.69327334
North Lawndale,29,Multifamily,Park Douglas,1260 S. Fairfield Ave.,60608,773-893-4800,Interstate Realty Management Co.,1,41.86472904,-87.69473582
Near West Side,28,ARO,171 N. Aberdeen St.,171 N. Aberdeen St.,60607,773-675-0244,Medici Living,6,,
Grand Boulevard,38,Multifamily,Progressive Square,4752 S. Wabash Ave.,60614,773-975-7234,CMHDC/Progressive NFP/Kass Management,107,41.80769903,-87.62455959
Logan Square,22,Senior,Renaissance West,2517 W. Fullerton Ave.,60647,773-862-2500,Renaissance Realty Group Inc.,41,41.9247621,-87.69066098
Chicago Lawn,66,Senior,Churchview Manor Independent Living,2626 W. 63rd St.,60629,773-925-0730,Greater Southwest Dev. Corp.,60,41.77928099,-87.68967949
Woodlawn,42,Multifamily,Woodlawn Station,6253 S. Cottage Grove Ave.,60637,773-955-8668,Preservation Housing Management LLC,55,,
Lakeview,6,ARO,3220 Lincoln,3220 N. Lincoln Ave.,60657,312-214-3563,3220 Lincoln LLC,2,,
North Lawndale,29,Multifamily,Praise Apts.,1859 S. Pulaski Road,60623,773-762-3389,Lawndale Christian Residential Svcs.,11,41.85533972,-87.72471008
Near North Side,8,Multifamily,Parkside-I Rental,545 W. Division St.,60610,312-944-8500,Holsten Management Corp.,116,41.90360901,-87.6430754
Humboldt Park,23,Multifamily,Bloomingdale Apts.,1745 N. Keystone Ave.,60639,773-276-2965,Village Green Management Co.,48,41.91299036,-87.72750391
Uptown,3,Senior,Kenmore Senior Housing,5040 N. Kenmore Ave.,60640,773-769-3006,The Habitat Co.,98,41.97449607,-87.65651102
Humboldt Park,23,Multifamily,Rosa Parks Apts.,526 N. St. Louis Ave.,60624,773-227-6332,Bickerdike Apts.,12,41.8909481,-87.71388693
Washington Heights,73,Senior,Brainerd Senior Center,8915 S. Loomis St.,60620,773-429-1501,Realty & Mortgage Co.,60,41.73164453,-87.65793186
Lower West Side,31,Multifamily,Casa Chiapas,1712 W. 17th St.,60608,312-666-1323,The Resurrection Project,72,41.85876878,-87.66938208
Humboldt Park,23,Multifamily,Tierra Linda Apts.,1757 N. Drake Ave.,60647,773-276-5338,LUCHA,3,,
Douglas,35,Senior,Pioneer Gardens Supportive Living,3800 S. King Dr.,60653,773-420-4100,Pioneer Gardens Senior Housing,120,41.825556,-87.61717842
Edgewater,77,Multifamily,Winthrop Apts.,6214 N. Winthrop Ave.,60660,773-477-7070,Hunter Properties,108,41.99501546,-87.65851604
Oakland,36,Multifamily,Lakefront Phase II,4130 S. Oakenwald Ave.,60653,773-548-8795,"Urban Property Advisors, LLC",6,41.81938039,-87.59887932
Austin,25,Senior HUD 202,Enola A. Dew Senior Apts.,4623 W. Gladys Ave.,60644,773-287-2972,"Prairie Management & Development, Inc.",60,41.87586178,-87.74131396
North Lawndale,29,Multifamily,Park Douglas,1220 S. Talman Ave.,60608,773-893-4800,Interstate Realty Management Co.,10,41.86584389,-87.69231965
Irving Park,16,Senior,Senior Residence at Kedzie,4054 N. Kedzie Ave.,60618,773-381-7400,G&A Management,51,41.95553133,-87.70820786
Woodlawn,42,Multifamily,WECAN,6450 S. Stony Island Ave.,60637,773-288-3000,WECAN,117,41.77728699,-87.58649335
Grand Boulevard,38,Multifamily,Shops & Lofts at 47,747 E. 47th St.,60653,855-618-4959,The Community Builders Inc.,72,41.80941355,-87.60708556
South Lawndale,30,Multifamily,Resurrection Homes,2243 S. Central Park Ave.,60623,312-248-8355,The Resurrection Project,2,41.85039133,-87.7148139
West Town,24,ARO,1938 W. North Ave.,1938 W. North Ave.,60622,312-423-5508,Dream Town Realty,2,,
North Lawndale,29,Multifamily,Renaissance Place Apts.,3128 W. Douglas Blvd.,60623,773-762-3389,Lawndale Christian Residential Svcs.,11,41.86308761,-87.70428319
Riverdale,54,Senior,Concordia Apts.,13037 S. Daniel Dr.,60627,773-995-5200,"DRE, Inc.",75,41.65793125,-87.6159174
Douglas,35,ARO,Unity Hall,3138-40 S. Indiana Ave.,60616,312-929-2608,TRB properties,2,41.83717695,-87.62203977
Edgewater,77,ARO,Glenlake LLC,1544 W. Glenlake Ave.,60660,773-404-9904,TMG Management,3,,
Lower West Side,31,Multifamily,Casa Guanajuato,1313 W. 19th St.,60608,312-666-1323,The Resurrection Project,6,41.85597939,-87.65939108
Logan Square,22,ARO,Noca Blu,2328-48 N. California Ave.,60647,707-483-8708,Pinnacle Living,14,41.92365685,-87.69753123
Logan Square,22,Multifamily,Tierra Linda Apts.,1834-36 N. Sawyer Ave.,60647,773-276-5338,LUCHA,6,,
South Shore,43,Senior,Rainbow's End,7538 S. Kingston Ave.,60649,773-768-5402,"Urban Property Advisors, LLC",84,41.75787127,-87.56285983
Austin,25,Multifamily,Rebecca Walker Complex,5565-71 W. Quincy Ave.,60644,773-261-1550,Affordable Property Management Specialist,12,41.8773375,-87.76423685
Washington Park,40,Multifamily,St. Edmund's Oasis,6143-51 S. Indiana Ave.,60637,773-493-2411,St. Edmund's Redevelopment Corp.,14,41.78254707,-87.62038523
Humboldt Park,23,Supportive/Veterans,Hope Manor Apts.,3053 W. Franklin Blvd.,60612,773-475-6703,Volunteers of America Illinois,50,41.88999235,-87.70368677
Uptown,3,Multifamily,Malden Arms Apts.,4727 N. Malden St.,60640,773-334-2164,Mercy Housing,41,41.96799271,-87.66263241
Washington Park,40,Multifamily,St. Edmund's Manor,5947 S. Indiana Ave.,60653,773-548-8924,St. Edmund's Manor Ltd.,24,41.78604936,-87.62047574
Chatham,44,Supportive Housing,Karibuni Place,8200 S. Ellis Ave.,60619,773-873-0708,Heartland Housing,72,41.74575696,-87.60031991
Uptown,3,Multifamily,Uptown Preservation Apts.,4431 N. Clifton Ave.,60640,773-286-5400,Leasing & Management Co. Inc.,18,41.96265369,-87.65819285
Lakeview,6,Senior,Renaissance St. Luke Greenview Place,1501 W. Melrose St.,60657,773-525-1501,"RRG Development, Inc.",155,41.94053116,-87.66638261
Austin,25,Senior,Senior Suites of Austin,335 N. Menard Ave.,60644,773-378-0333,Senior Lifestyle Corp.,84,41.88673275,-87.76983958
Englewood,68,Supportive Housing,Englewood Apts.,901 W. 63rd Street,60621,773-994-3199,Mercy Housing,45,41.77959999,-87.64726896
Logan Square,22,ARO,2400 Cortland,2404-14 W. Cortland St.,60647,312-489-1600,Laramar Group,2,41.91586948,-87.68763427
West Ridge,2,ARO,"5822 North Western, LLC",5822 N. Western Ave.,60659,773-572-2755,Chicago Apartment Finders,2,41.98752226,-87.68971871
Rogers Park,1,Senior,Wayne Senior Housing,6928 N. Wayne Ave.,60626,773-274-0177,CIG Management,119,42.00757377,-87.66517114
Humboldt Park,23,Multifamily,Tierra Linda Apts.,1649-51 N. Drake Ave.,60647,773-276-5338,LUCHA,6,,
Douglas,35,Multifamily,Park Boulevard IIB,3633 S. State St.,60609,773-548-8792,"Urban Property Advisors, LLC",12,41.82865019,-87.62635888
North Center,5,ARO,1911-21 W. Irving Park Rd.,1911-21 W. Irving Park Rd.,60613,312-285-3749,Campell Street Asset Management Inc.,2,41.95407205,-87.67682369
Near West Side,28,Senior,Roosevelt Place,1401 W. Roosevelt Road,60608,312-733-2436,"East Lake Management Group, Inc.",181,41.86680605,-87.66169184
Grand Boulevard,38,Multifamily,Cornerstone Apts.,633 E. 50th St.,60615,312-577-5555,The Community Builders Inc.,7,41.8039101,-87.61014176
Washington Park,40,Supportive/Kinship Families,Coppin House,325-43 E. 55th Place,60637,773-752-2331,Interfaith Housing Corp.,28,41.79376972,-87.61813849
Grand Boulevard,38,Multifamily,Legends South - Hansberry Square,4034 S. State St.,60609,773-548-8800,Interstate Realty Management Co.,181,41.82091083,-87.62652565
Lower West Side,31,ARO,Woodwork Lofts,1414-48 W. 21st St.,60608,312-576-7392,Stellar Performance Inc.,10,41.85434832,-87.66187526
Near North Side,8,ARO,Atrium at Old Town Park,300 W. Hill St.,60610,312-642-8707,Omni Group,41,41.90219524,-87.63592092
Grand Boulevard,38,Multifamily,Hearts United II-The Quincy (scattered sites),701-27 E. 43rd St.,60653,773-924-2100,Bonheur Realty Services Corp.,81,41.81666609,-87.60905996
Washington Park,40,Multifamily,St. Edmund's Oasis,215 E. 61st St.,60637,773-493-2411,St. Edmund's Redevelopment Corp.,5,41.78370163,-87.61994272
Roseland,49,Senior,Roseland Ridge Senior Apts.,10400-30 S. Michigan Ave.,60628,773-548-8301,Neighborhood Housing Services,124,41.70534195,-87.62064503
Douglas,35,Multifamily,Park Boulevard IIA,3612 S. State St.,60609,773-548-8792,"Urban Property Advisors, LLC",6,41.82873626,-87.62665512
Oakland,36,Multifamily,"Oakwood Shrs 1A, 1B, 2A, 2B1 (scattered sites)",3859 S. Vincennes Ave.,60653,773-373-1300,The Community Builders,534,41.8239192,-87.61246844
Belmont Cragin,19,Senior,Senior Suites of Kelvyn Park,2715 N. Cicero Ave.,60639,773-252-0333,Senior Lifestyle Corp.,85,41.93012657,-87.74638854
North Lawndale,29,Multifamily,Dr. King Apts.,1550 S. Hamlin Ave.,60623,773-776-7233,Lawndale Christian Residential Svcs.,45,41.85923592,-87.7202403
Lakeview,6,ARO,Clarkview Apts.,3228 N. Clark St.,60657,773-562-6149,Glascott Realty,2,41.94064621,-87.65140951
Uptown,3,ARO,4420 N. Sheridan Apts.,4420 N. Sheridan Road,60640,312-342-9655,Quest Chicago,1,,
West Town,24,Multifamily,La Estancia,2753 W. Division St.,60622,773-227-6332,Bickerdike Redevelopment Corp.,59,41.90281875,-87.69652556
Logan Square,22,Multifamily,1879 N. Milwaukee,1879 N. Milwaukee Ave.,60647,773-697-5276,Peak Properties,2,,
East Garfield Park,27,Multifamily,Homan Square Apartments Phase I,750 S. Homan Ave.,60624,773-722-7320,Realty & Mortgage Co.,50,41.87119717,-87.71084842
Humboldt Park,23,Supportive/Males 18-24yrs.,Solid Ground Supportive Housing Program,3507 W. North Ave.,60647,773-276-4900,"La Casa Norte, Inc.",35,41.9099065,-87.71469504
West Town,24,ARO,1237 N. Milwaukee Ave.Owner LLC,1241 N. Milwaukee Ave.,60622,312-883-7331,CIM Group,6,41.904342,-87.66779176
Logan Square,22,Multifamily,Zapata Apts.,3734 W. Cortland St.,60647,773-227-6332,Bickerdike Apartments,30,41.91552353,-87.72061073
Humboldt Park,23,Multifamily,Nelson Mandela Apts.,3108 W. Franklin Blvd.,60624,773-227-6332,Bickerdike Apts.,6,41.89020402,-87.70435734
Woodlawn,42,Multifamily,65th Street Apts.,848-58 E. 65th St.,60637,773-684-2056,"Urban Property Advisors, LLC",6,41.77690925,-87.60395378
Avondale,21,ARO,The Field's Lofts,4000 W. Diversey Ave.,60639,773-327-6146,33 Realty,12,,
Auburn Gresham,71,Senior,Auburn Commons,1626 W. 87th St.,60620,773-238-0850,"Urban Property Advisors, LLC",72,41.73588515,-87.66414272
Englewood,68,Senior,Sangamon Terrace,6415 S. Sangamon St.,60621,312-234-9400,Evergreen Real Estate Services,34,41.77739333,-87.6482214
Oakland,36,Senior,Oakwood Shores Terrace,3755 S. Cottage Grove Ave.,60653,773-373-1300,"The Community Builders, Inc.",148,41.82631731,-87.60794545
Humboldt Park,23,Multifamily,Rosa Parks Apts.,3215 W. Huron St.,60624,773-227-6332,Bickerdike Apts.,6,41.89360833,-87.70720187
East Garfield Park,27,Multifamily,Homan Square Apartments Phase VI,3609 W. Arthington St.,60624,773-722-7320,Realty & Mortgage Co.,52,41.86982456,-87.71590385
West Garfield Park,26,Senior,Midwest Apts.,6 N. Hamlin Blvd.,60624,773-265-0323,Holsten Management Corp.,276,41.88096762,-87.72090693
Near West Side,28,Multifamily,St. Andrew's Court,50 N. Hoyne Ave.,60612,312-226-7620,St. Andrew's Court LP,15,41.8828067,-87.67926811
New City,61,Senior,New City Supportive Living,4707 S. Marshfield Ave.,60609,773-376-1223,BMA Management Ltd.,101,41.80836402,-87.66603344
Montclare,18,ARO,Harlem & Wrightwood,2601-19 N. Harlem Ave.,60707,312-671-0777,NOAH Properties,2,41.92716483,-87.80621904
North Lawndale,29,Multifamily,Park Doulglas,1345 S. Fairfield Ave.,60608,773-893-4800,Interstate Realty Management Co.,17,41.86339815,-87.69440189
West Ridge,2,Senior,G & A Senior Residences at Ravenswood,1818 W. Peterson Ave.,60660,773-381-7400,Eastgate Village Senior Corp.,89,41.99084916,-87.67599309
Uptown,3,ARO,Somerset Place Apts.,5009 N. Sheridan Road,60640,317-596-2168,Zidan Management Group,16,41.97361773,-87.65478924
Grand Boulevard,38,Multifamily,Geneva Gables,4420-24 S. Michigan Ave.,60653,773-924-7700,Tri-Mart Management Co.,65,41.81406086,-87.62311222
Near North Side,8,Multifamily,Parkside of Old Town IIB,459 W. Division St.,60622,312=944-8500,Holsten Real Estate Dev. Corp.,94,41.90364882,-87.64046322
Norwood Park,10,Senior,Senior Suites of Norwood Park,5700 N. Harlem Ave.,60631,888-339-2315,Senior Lifestyle,84,41.98466628,-87.80707301
Jefferson Park,11,Senior,Senior Suites of Jefferson Park,5400 N. Northwest Hwy.,60630,773-775-7333,Senior Lifestyle Corp.,73,41.97839039,-87.77439957
Oakland,36,Multifamily,Lakefront Phase II,1120 E. Bowen Ave.,60653,773-548-8795,"Urban Property Advisors, LLC",6,41.81886099,-87.59923619
Roseland,49,Supportive Housing,Wentworth Commons,11045 S. Wentworth Ave.,60628,773-568-7804,Mercy Housing Lakefront,50,41.69301591,-87.62776735
West Town,24,ARO,Bucktown Gateway,1667 N. Western Ave.,60647,773-398-5785,Bucktown Gateway,1,,
Chicago Lawn,66,Senior,Churchview Supportive Assisted Living,2626 W. 63rd St.,60629,773-471-4444,Greater Southwest Dev. Corp.,86,41.77928099,-87.68967949
Logan Square,22,Multifamily,Zapata Apts.,3230 W. Armitage Ave,60647,773-227-6332,Bickerdike Apartments,100,41.91749465,-87.70826581
North Lawndale,29,Supportive Housing,Independence Apts.,927 S. Indepenednece Blvd.,60624,773-549-8300,Realty & Mortgage Co.,58,,
Hyde Park,41,Multifamily,Hyde Park Apts.,5330 S. Harper Ave.,60615,773-955-2610,"DRE, Inc.",36,41.79857178,-87.58921454
Brighton Park,58,Multifamily,El Zcalo,3246 W. 47th St.,60632,312-870-4747,H&J Real Estate Management,30,41.80820589,-87.70586474
Dunning,17,Senior,Autumn Green at Wright Campus,4239 N. Oak Park Ave.,60634,773-202-3388,Senior Lifestyle Corp.,129,41.95769221,-87.79754403
West Town,24,ARO,945 Western,945 N. Western Ave.,60622,773-278-8078,Wicker Park Apartments Inc.,2,41.89889515,-87.68677643
Lower West Side,31,Multifamily,Casa Puebla,2014 S. Racine Ave.,60608,312-666-1323,The Resurrection Project,63,41.85469028,-87.65647821
Logan Square,22,Multfamily,Tierra Linda Apts.,1858 N. Spaulding Ave.,60647,773-276-5338,LUCHA,3,,
Austin,25,Senior HUD 202,Elois McCoy Village Apts.,4650 W. Van Buren St.,60644,773-626-5320,"Prairie Management & Development, Inc.",60,41.87516676,-87.74216784
Woodlawn,42,Multifamily,The Grant at Woodlawn Pk Phase I,6227-29 S. Cottage Grove Ave.,60637,312-283-0030,Preservation Housing Management LLC,67,41.781408,-87.60580712
North Lawndale,29,Multifamily,Park Douglas,1310-14 S. Washtenaw Ave.,60608,773-893-4800,Interstate Realty Management Co.,10,41.86433604,-87.69349569
West Englewood,67,Multifamily,Clara's Village,2115 W. 63rd St,60636,773-434-4929,Interfaith Housing Corp.,13,41.77916282,-87.6770312
Portage Park,15,Senior,The Kilpatrick Renaissance,4655 W. Burteau Ave.,60641,773-283-4655,The Renaissance Cos.,98,41.95639632,-87.74523589
Near North Side,8,Multifamily,Parkside of Old Town Phase IIA,544 W. Oak St.,60610,312-640-6032,Holsten Real Estate Dev. Corp.,111,41.90052524,-87.64295528
South Lawndale,30,Multifamily,Casa Sor Juana,2700 S. Drake Ave.,60623,312-850-1935,The Resurrection Project,29,41.84247656,-87.71366715
Greater Grand Crossing,69,Multifamily,Englewood Gardens,6956 S. Vincennes Ave.,60621,773-994-4830,"East Lake Management Group, Inc.",24,41.76751603,-87.62717205
Near West Side,28,Multifamily,City Gardens,320 S. Maplewood Ave.,60612,844-842-2779,Interstate Realty Management Co.,76,41.87698195,-87.69022214
Near West Side,28,ARO,The Mason,180 N. Ada St.,60607,312-809-0240,Marquette Management Inc.,26,,
Auburn Gresham,71,Multifamily,Stone Terrace,8440 S. Parnell Ave.,60620,773-651-9234,East Lake Management & Development Corp.,56,41.74018636,-87.63781991
Oakland,36,Multifamily,Lakefront Phase II,4116 S. Oakenwald Ave.,60653,773-548-8795,"Urban Property Advisors, LLC",3,41.8195725,-87.59929085
Humboldt Park,23,Multifamily,Rosa Parks Apts.,3341 W. Ohio St.,60624,773-227-6332,Bickerdike Apts.,16,41.89174085,-87.71055924
Humboldt Park,23,Multifamily,Nelson Mandela Apts.,505 N. Troy St.,60612,773-227-6332,Bickerdike Apts.,6,41.89052242,-87.70502546
Uptown,3,Senior,Wilson Yard Senior Apts.,1032 W. Montrose Ave,60613,866-227-0438,Holsten Real Estate Dev. Corp.,13,41.96186585,-87.65610743
North Lawndale,29,Multifamily,Park Douglas,1255 S. Fairfield Ave.,60608,773-893-4800,Interstate Realty Management Co.,5,41.86489079,-87.69444711
Washington Park,40,People with Disabilities,"Brand New Beginnings, Inc.",5801 S. Michigan Ave.,60637,773-955-5780,Harriet Tubman NFP,25,41.78915201,-87.62217908
Garfield Ridge,56,Senior,Midway Pointe Senior Living,5011 W. 47th St.,60638,872-302-4010,Perlmark Realty Management LLC,85,41.80744124,-87.74856678
Lower West Side,31,Multifamily,Casa Morelos,2015 S. Morgan St.,60608,312-666-1323,The Resurrection Project,4,41.85480194,-87.65132697
West Town,24,ARO,Luxe on Chicago,1838 W. Chicago Ave.,60622,312-424-6225,Fifield Co.,4,41.89607519,-87.67373584
Grand Boulevard,38,Multifamily,Bronzeville Family Apts.,400 E. 41st St.,60653,773-924-2100,Peoples Co-Op Management Service,60,41.8203495,-87.61651411
North Lawndale,29,Multifamily,Park Douglas,2639 W. 12th Pl,60608,773-893-4800,Interstate Realty Management Co.,5,41.86555368,-87.69250717
Woodlawn,42,Multifamily,65th Street Apts.,6600 S. Greenwood Ave.,60637,773-684-2056,"Urban Property Advisors, LLC",42,41.77493196,-87.59987091
West Town,24,Multifamily,Borinquen Bella Apts.,"1414,1451 N. Washtenaw Ave.",60622,773-276-5338,LUCHA,23,41.90708504,-87.69461792
South Shore,43,Senior,Senior Suites of South Shore,2355 E. 67th St.,60649,773-324-2333,Senior Lifestyle Corp.,55,41.77343579,-87.56778382
Woodlawn,42,Multifamily,Trianon Lofts,803 E. 61st St.,60637,773-955-8668,Preservation Housing Management LLC,12,41.783951,-87.60584338
Humboldt Park,23,Multifamily,Nelson Mandela Apts.,3525 W. Ohio St.,60624,773-227-6332,Bickerdike Apts.,6,41.89169871,-87.71492195
Douglas,35,Multifamily,South Park Plaza,2600 S. King Dr.,60616,312-674-9210,Woodlawn Comm. Dev. Corp.,134,41.84565291,-87.61781639
Austin,25,Multifamily,Rebecca Walker Complex,223-9 S. Central Ave.,60644,773-261-1550,Affordable Property Management Specialist,12,41.87759814,-87.76461864
Lincoln Square,4,ARO,Ravenswood Terrace,1801-15 W. Argyle St.,60640,773-444-8733,Kass Management,15,41.97235677,-87.67492225
Lower West Side,31,Multifamily,Casa Colima,1427 W. Cullerton St.,60608,312-666-1323,The Resurrection Project,3,41.8550271,-87.66233036
Englewood,68,Senior,Yale Building,6565 S. Yale Ave.,60621,773-224-7669,Yale Building LLP,140,41.77466762,-87.6315302
East Garfiled Park,27,Multifamily,Harvest Homes,3512-46 W. Fifth Ave.,60624,312-216-5103,Realty & Mortgage Co.,36,41.87638462,-87.71361194
Logan Square,22,Multifamily,Tierra Linda Apts.,1929 N. Drake Ave.,60647,773-276-5338,LUCHA,3,,
North Lawndale,29,Multifamily,Park Douglas,2707 W. 12th St.,60808,773-893-4800,Interstate Realty Management Co.,5,41.86642326,-87.69375381
Washington Park,40,Multifamily,St. Edmund's Oasis,300-10 E. 61st St.,60637,773-493-2411,St. Edmund's Redevelopment Corp.,12,41.78393828,-87.61886624
Grand Boulevard,38,Multifamily,Legends South - Coleman Place,223 E. 41st St.,60653,773-268-0202,Interstate Realty Management Co.,118,41.82007455,-87.6204233
Humboldt Park,23,Supportive Housing,Humboldt Park Residences,1152 N. Christiana Ave.,60647,773-276-5338 ext. 225,LUCHA,69,41.9025858,-87.71076053
North Lawndale,29,Multifamily,Dicksons Estates Apts.,1129 S. Sacramento Ave.,60612,773-638-0386,Dickson Estates Apartments,48,41.86736961,-87.70066623
Near West Side,28,Multifamily,Westhaven Park Phase IIA,2237 W. Maypole Ave.,60612,312-455-0009,Interstate Realty Management Co.,92,41.88380799,-87.68281702
South Chicago,46,Supportive Housing,Bettendorf Place SRO,8425 S. Saginaw Ave.,60617,773-359-4902,Alexian Brothers Bonaventure House,112,41.74195912,-87.5598599
Uptown,3,Multifamily,Uptown Preservation Apts.,927 W. Wilson Ave.,60640,773-286-5400,Leasing & Management Co. Inc.,18,41.96533937,-87.65347906
Humboldt Park,23,Multifamily,Rosa Parks Apts.,521 N. St. Louis Ave.,60624,773-227-6332,Bickerdike Apts.,6,41.89090793,-87.71359179
Washington Heights,73,Senior,Senior Suites of Washington Heights,848 W. 103rd St.,60643,773-233-1333,Senior Lifestyle Corp.,82,41.70700943,-87.64478166
Grand Boulevard,38,Multifamily,Paul G. Stewart Phase III Tower,401 E. Bowen Ave.,60653,312-924-2100,Paul G. Stewart Assoc.,180,41.81922851,-87.61645178
Pullman,50,Senior,Pullman Suites,15 E. 112th Place,60628,773-840-3993,Triangle & Assoc.,60,41.68976374,-87.62239508
Near North Side,8,Multfamily,Parkside of Old Town IIB,1151 N. Cleveland Ave.,60622,312-944-8500,Holsten Real Estate Dev. Corp.,12,41.90298972,-87.64104289
Near South Side,33,Multifamily,Hilliard Homes Phase I,2030 S. State St.,60616,312-225-7610,Holsten Real Estate Dev. Corp.,170,41.85453503,-87.62726774
Washington Park,40,Multifamily,St. Edmund's Commons,110 E. 60th St.,60637,773-420-3328,St. Edmund's Redevelopment Corp.,54,41.78570095,-87.6217485
Near West Side,28,Senior,Loomis Court,1314 W. 15th St.,60608,312-850-4128,CHA,68,41.86166987,-87.65963108
Grand Boulevard,38,Multifamily,Cornerstone Apts.,636 E. 50th St.,60615,312-577-5555,The Community Builders Inc.,5,41.80413302,-87.60993412
